[{"OBJECT_NAME":"ASTROCAST-0404","OBJECT_ID":"2023-001DH","EPOCH":"2026-03-09T19:24:02.920896","MEAN_MOTION":15.26309833,"ECCENTRICITY":0.00068478,"INCLINATION":97.5646,"RA_OF_ASC_NODE":161.5422,"ARG_OF_PERICENTER":1.1317,"MEAN_ANOMALY":358.9936,"EPHEMERIS_TYPE":0,"CLASSIFICATION_TYPE":"U","NORAD_CAT_ID":55112,"ELEMENT_SET_NO":999,"REV_AT_EPOCH":12936,"BSTAR":0.00034435555,"MEAN_MOTION_DOT":8.87e-5,"MEAN_MOTION_DDOT":0},{"OBJECT_NAME":"FENGYUN 1C DEB","OBJECT_ID":"1999-025AZQ","EPOCH":"2026-03-09T07:24:32.374656","MEAN_MOTION":14.90450247,"ECCENTRICITY":0.01635078,"INCLINATION":98.8142,"RA_OF_ASC_NODE":23.899,"ARG_OF_PERICENTER":102.803,"MEAN_ANOMALY":259.1511,"EPHEMERIS_TYPE":0,"CLASSIFICATION_TYPE":"U","NORAD_CAT_ID":30926,"ELEMENT_SET_NO":999,"REV_AT_EPOCH":2056,"BSTAR":0.00046140842,"MEAN_MOTION_DOT":5.728e-5,"MEAN_MOTION_DDOT":0}]
